     2.11           N: GPS NAV DATA                         RINEX VERSION / TYPE
Mdb2Rinex 5.6.46W                       20170714 232753 UTC PGM / RUN BY / DATE
gfzrnx-1.13-7761    FILE PROCESSING     20240522 151038 UTC COMMENT             
                                                            END OF HEADER
18 17 03 29 14 00  0.0 6.074612028897e-04 2.160049916711e-12 0.000000000000e+00
    9.600000000000e+01-7.050000000000e+01 5.573446593132e-09-1.307513476670e+00
   -3.287568688393e-06 1.786486792844e-02 9.048730134964e-06 5.153747499466e+03
    3.096000000000e+05 1.285225152969e-07-3.907825141860e-01 4.395842552185e-07
    9.257793697410e-01 1.845312500000e+02-1.820630291599e+00-8.628930459054e-09
   -5.582375117719e-10 1.000000000000e+00 1.942000000000e+03 0.000000000000e+00
    2.000000000000e+00 0.000000000000e+00-1.117587089539e-08 9.600000000000e+01
    3.023400000000e+05 0.000000000000e+00 0.000000000000e+00 0.000000000000e+00
20 17 03 29 14 00  0.0 4.660934209824e-04 1.591615728103e-12 0.000000000000e+00
    6.100000000000e+01-7.828125000000e+01 5.518086876322e-09 2.603916074436e+00
   -4.155561327934e-06 4.443777375855e-03 8.644536137581e-06 5.153651483536e+03
    3.096000000000e+05 8.754432201385e-08-4.421962595234e-01-3.911554813385e-08
    9.270796025524e-01 1.944375000000e+02 1.576712872214e+00-8.511426230484e-09
   -6.125255302969e-10 1.000000000000e+00 1.942000000000e+03 0.000000000000e+00
    2.000000000000e+00 0.000000000000e+00-8.381903171539e-09 6.100000000000e+01
    3.023400000000e+05 0.000000000000e+00 0.000000000000e+00 0.000000000000e+00
21 17 03 29 14 00  0.0-5.150497891009e-04 1.932676241267e-12 0.000000000000e+00
    7.500000000000e+01 2.868750000000e+01 5.695951710294e-09-4.060031512952e-01
    1.637265086174e-06 2.401689393446e-02 4.470348358154e-06 5.153699178696e+03
    3.096000000000e+05-2.905726432800e-07-1.431870545464e+00 2.309679985046e-07
    9.387304767038e-01 2.890000000000e+02-1.689981548618e+00-9.211097662387e-09
    4.475186332620e-10 1.000000000000e+00 1.942000000000e+03 0.000000000000e+00
    2.000000000000e+00 0.000000000000e+00-9.778887033463e-09 7.500000000000e+01
    3.023400000000e+05 0.000000000000e+00 0.000000000000e+00 0.000000000000e+00
25 17 03 29 14 00  0.0-3.607044927776e-04-6.707523425575e-12 0.000000000000e+00
    8.500000000000e+01-1.167812500000e+02 4.216246907163e-09-3.852217065560e-01
   -6.088986992836e-06 6.385402870364e-03 8.763745427132e-06 5.153613292694e+03
    3.096000000000e+05 5.774199962616e-08 2.796672730908e+00 1.136213541031e-07
    9.776435797393e-01 2.169687500000e+02 7.758697873481e-01-8.152125197114e-09
   -6.200258084732e-10 1.000000000000e+00 1.942000000000e+03 0.000000000000e+00
    2.000000000000e+00 0.000000000000e+00 5.587935447693e-09 8.500000000000e+01
    3.023400000000e+05 0.000000000000e+00 0.000000000000e+00 0.000000000000e+00
26 17 03 29 14 00  0.0-5.165822803974e-04 1.932676241267e-12 0.000000000000e+00
    7.400000000000e+01-1.170937500000e+02 4.479472348606e-09-9.313417558596e-01
   -6.085261702538e-06 1.806159736589e-03 8.175149559975e-06 5.153677631378e+03
    3.096000000000e+05 6.519258022308e-08 2.782302542206e+00-1.396983861923e-07
    9.594330482147e-01 2.232812500000e+02 2.183445609845e-02-8.171054943773e-09
   -5.893102672516e-10 1.000000000000e+00 1.942000000000e+03 0.000000000000e+00
    2.000000000000e+00 0.000000000000e+00 6.984919309616e-09 7.400000000000e+01
    3.023400000000e+05 0.000000000000e+00 0.000000000000e+00 0.000000000000e+00
29 17 03 29 14 00  0.0 6.167385727167e-04-2.955857780762e-12 0.000000000000e+00
    2.100000000000e+01 3.206250000000e+01 3.814087268239e-09-7.253886932479e-01
    1.683831214905e-06 7.111827144399e-04 1.289509236813e-05 5.153658159256e+03
    3.096000000000e+05 6.146728992462e-08-2.385589236704e+00-1.676380634308e-08
    9.805979793733e-01 1.414687500000e+02 2.870111853393e-02-7.684605840552e-09
    5.139499936746e-10 1.000000000000e+00 1.942000000000e+03 0.000000000000e+00
    2.000000000000e+00 0.000000000000e+00-1.024454832077e-08 2.100000000000e+01
    3.023400000000e+05 0.000000000000e+00 0.000000000000e+00 0.000000000000e+00
